NORAD_CAT_ID,OBJECT_NAME,OBJECT_TYPE,EPOCH,MEAN_MOTION,ECCENTRICITY,INCLINATION,RA_OF_ASC_NODE,ARG_OF_PERICENTER,MEAN_ANOMALY,BSTAR,MEAN_MOTION_DOT,MEAN_MOTION_DDOT,TLE_LINE0,TLE_LINE1,TLE_LINE2,SEMIMAJOR_AXIS,PERIOD,APOGEE,PERIGEE,DECAYED
53399.0,STARLINK-4528,PAYLOAD,2023-02-25 16:37:23,15.08839879,0.0001275,53.216,58.1189,95.1832,264.9306,-2.408e-05,-6.71e-06,0.0,0 STARLINK-4528,1 53399U 22097M   23056.69263272 -.00000671  00000-0 -24080-4 0  9996,2 53399  53.2160  58.1189 0001275  95.1832 264.9306 15.08839879 30756,6917.881,95.438,540.628,538.864,0.0
53399.0,STARLINK-4528,PAYLOAD,2023-02-25 21:23:33,15.08835426,0.0001268,53.216,57.2266,95.1681,264.9455,5.0783e-05,5.2e-06,0.0,0 STARLINK-4528,1 53399U 22097M   23056.89135429  .00000520  00000-0  50783-4 0  9990,2 53399  53.2160  57.2266 0001268  95.1681 264.9455 15.08835426 31273,6917.894,95.438,540.637,538.882,0.0
53399.0,STARLINK-4528,PAYLOAD,2023-02-26 06:55:50,15.08848281,0.0001293,53.2162,55.4426,104.2879,255.8257,0.00014497,2.021e-05,0.0,0 STARLINK-4528,1 53399U 22097M   23057.28878376  .00002021  00000-0  14497-3 0  9998,2 53399  53.2162  55.4426 0001293 104.2879 255.8257 15.08848281 30846,6917.855,95.437,540.615,538.826,0.0
53399.0,STARLINK-4528,PAYLOAD,2023-02-26 19:38:56,15.08833484,0.0001672,53.2164,53.0641,105.127,254.9907,0.0001588,2.24e-05,0.0,0 STARLINK-4528,1 53399U 22097M   23057.81871306  .00002240  00000-0  15880-3 0  9993,2 53399  53.2164  53.0641 0001672 105.1270 254.9907 15.08833484 30927,6917.9,95.438,540.922,538.609,0.0
53399.0,STARLINK-4528,PAYLOAD,2023-02-27 08:22:02,15.08833405,0.0001511,53.2163,50.6847,101.1424,258.9738,0.00013124,1.801e-05,0.0,0 STARLINK-4528,1 53399U 22097M   23058.34863814  .00001801  00000-0  13124-3 0  9998,2 53399  53.2163  50.6847 0001511 101.1424 258.9738 15.08833405 31498,6917.901,95.438,540.811,538.72,0.0
53399.0,STARLINK-4528,PAYLOAD,2023-02-27 16:18:56,15.0885307,0.0001307,53.2169,49.1981,97.4843,262.6298,0.00023358,3.433e-05,0.0,0 STARLINK-4528,1 53399U 22097M   23058.67982418  .00003433  00000-0  23358-3 0  9999,2 53399  53.2169  49.1981 0001307  97.4843 262.6298 15.08853070 31056,6917.84,95.437,540.61,538.801,0.0
53399.0,STARLINK-4528,PAYLOAD,2023-02-28 06:37:24,15.08870634,0.0001236,53.2163,46.5206,94.809,265.3043,0.00044075,6.739e-05,0.0,0 STARLINK-4528,1 53399U 22097M   23059.27597240  .00006739  00000-0  44075-3 0  9992,2 53399  53.2163  46.5206 0001236  94.8090 265.3043 15.08870634 31634,6917.787,95.436,540.507,538.797,0.0
53399.0,STARLINK-4528,PAYLOAD,2023-02-28 16:09:43,15.08841394,0.000146,53.2169,44.737,90.986,269.1299,-6.1306e-05,-1.264e-05,0.0,0 STARLINK-4528,1 53399U 22097M   23059.67342360 -.00001264  00000-0 -61306-4 0  9994,2 53399  53.2169  44.7370 0001460  90.9860 269.1299 15.08841394 31202,6917.876,95.437,540.751,538.731,0.0
53399.0,STARLINK-4528,PAYLOAD,2023-02-28 22:31:17,15.08799859,9.36e-05,53.2169,43.5483,117.6399,242.4688,-0.00072493,-0.00011793,0.0,0 STARLINK-4528,1 53399U 22097M   23059.93839998 -.00011793  00000-0 -72493-3 0  9997,2 53399  53.2169  43.5483 0000936 117.6399 242.4688 15.08799859 31243,6918.003,95.44,540.516,539.221,0.0
53399.0,STARLINK-4528,PAYLOAD,2023-03-01 04:52:51,15.08780432,0.0001007,53.2159,42.3581,93.2239,266.8868,-0.0010198,-0.00016454,0.0,0 STARLINK-4528,1 53399U 22097M   23060.20337540 -.00016454  00000-0 -10198-2 0  9997,2 53399  53.2159  42.3581 0001007  93.2239 266.8868 15.08780432 31281,6918.062,95.441,540.624,539.231,0.0
53399.0,STARLINK-4528,PAYLOAD,2023-03-01 19:11:19,15.08833944,0.0001101,53.2159,39.684,88.0545,272.0573,0.0022699,0.00036016,0.0,0 STARLINK-4528,1 53399U 22097M   23060.79953408  .00036016  00000-0  22699-2 0  9991,2 53399  53.2159  39.6840 0001101  88.0545 272.0573 15.08833944 31374,6917.899,95.438,540.526,539.002,0.0
53399.0,STARLINK-4528,PAYLOAD,2023-03-01 22:22:05,15.08848856,0.0001059,53.2158,39.0875,98.2845,261.8268,0.0027933,0.00044459,0.0,0 STARLINK-4528,1 53399U 22097M   23060.93201364  .00044459  00000-0  27933-2 0  9990,2 53399  53.2158  39.0875 0001059  98.2845 261.8268 15.08848856 31884,6917.853,95.437,540.451,538.986,0.0
53399.0,STARLINK-4528,PAYLOAD,2023-03-02 03:08:14,15.08880156,0.0001109,53.2158,38.1952,92.6733,267.4386,0.0024678,0.00039249,0.0,0 STARLINK-4528,1 53399U 22097M   23061.13072802  .00039249  00000-0  24678-2 0  9990,2 53399  53.2158  38.1952 0001109  92.6733 267.4386 15.08880156 31422,6917.758,95.435,540.39,538.855,0.0
53399.0,STARLINK-4528,PAYLOAD,2023-03-02 19:02:05,15.08856525,0.0001118,53.2156,35.2203,87.8166,272.2954,-0.00030168,-5.088e-05,0.0,0 STARLINK-4528,1 53399U 22097M   23061.79311669 -.00005088  00000-0 -30168-3 0  9997,2 53399  53.2156  35.2203 0001118  87.8166 272.2954 15.08856525 32017,6917.83,95.437,540.468,538.921,0.0
53399.0,STARLINK-4528,PAYLOAD,2023-03-03 07:45:09,15.08875751,0.0001332,53.2155,32.8422,82.5405,277.5739,0.00090173,0.00014106,0.0,0 STARLINK-4528,1 53399U 22097M   23062.32303030  .00014106  00000-0  90173-3 0  9991,2 53399  53.2155  32.8422 0001332  82.5405 277.5739 15.08875751 31603,6917.771,95.435,540.558,538.715,0.0
53399.0,STARLINK-4528,PAYLOAD,2023-03-04 07:35:56,15.08889057,9.77e-05,53.2168,28.3816,89.6031,270.5073,0.0024225,0.00038529,0.0,0 STARLINK-4528,1 53399U 22097M   23063.31662048  .00038529  00000-0  24225-2 0  9997,2 53399  53.2168  28.3816 0000977  89.6031 270.5073 15.08889057 31755,6917.73,95.434,540.271,538.92,0.0
53399.0,STARLINK-4528,PAYLOAD,2023-03-04 21:54:24,15.08848805,0.0001229,53.2166,25.7055,86.3458,273.7675,0.0022888,0.00036335,0.0,0 STARLINK-4528,1 53399U 22097M   23063.91278782  .00036335  00000-0  22888-2 0  9997,2 53399  53.2166  25.7055 0001229  86.3458 273.7675 15.08848805 31846,6917.853,95.437,540.569,538.868,0.0
53399.0,STARLINK-4528,PAYLOAD,2023-03-06 05:42:07,15.08879649,0.0001234,53.2173,19.7587,67.7196,292.3927,0.0024617,0.0003915,0.0,0 STARLINK-4528,1 53399U 22097M   23065.23758853  .00039150  00000-0  24617-2 0  9996,2 53399  53.2173  19.7587 0001234  67.7196 292.3927 15.08879649 32045,6917.759,95.435,540.478,538.771,0.0
53399.0,STARLINK-4528,PAYLOAD,2023-03-06 20:00:36,15.08831348,0.0002239,53.2167,17.0831,81.453,278.6716,0.00087174,0.0001361,0.0,0 STARLINK-4528,1 53399U 22097M   23065.83375671  .00013610  00000-0  87174-3 0  9996,2 53399  53.2167  17.0831 0002239  81.4530 278.6716 15.08831348 32139,6917.907,95.438,541.321,538.223,0.0
53399.0,STARLINK-4528,PAYLOAD,2023-03-06 21:35:59,15.0882079,9.06e-05,53.2162,16.7846,34.4848,325.6203,0.00087905,0.00013722,0.0,0 STARLINK-4528,1 53399U 22097M   23065.89999906  .00013722  00000-0  87905-3 0  9991,2 53399  53.2162  16.7846 0000906  34.4848 325.6203 15.08820790 32633,6917.939,95.439,540.431,539.177,0.0
53399.0,STARLINK-4528,PAYLOAD,2023-03-07 05:32:55,15.08833356,0.0001241,53.2162,15.2964,69.7626,290.35,0.00056696,8.745e-05,0.0,0 STARLINK-4528,1 53399U 22097M   23066.23120105  .00008745  00000-0  56696-3 0  9999,2 53399  53.2162  15.2964 0001241  69.7626 290.3500 15.08833356 32197,6917.901,95.438,540.624,538.907,0.0
53399.0,STARLINK-4528,PAYLOAD,2023-03-08 05:23:42,15.08883061,0.0001184,53.2164,10.8373,80.6202,279.4924,0.0020684,0.00032823,0.0,0 STARLINK-4528,1 53399U 22097M   23067.22479528  .00032823  00000-0  20684-2 0  9996,2 53399  53.2164  10.8373 0001184  80.6202 279.4924 15.08883061 32345,6917.749,95.435,540.433,538.795,0.0
53399.0,STARLINK-4528,PAYLOAD,2023-03-08 06:59:05,15.08894941,0.0001111,53.2164,10.5395,85.5268,274.5851,0.0024346,0.0003873,0.0,0 STARLINK-4528,1 53399U 22097M   23067.29103219  .00038730  00000-0  24346-2 0  9996,2 53399  53.2164  10.5395 0001111  85.5268 274.5851 15.08894941 32841,6917.712,95.434,540.346,538.809,0.0
53399.0,STARLINK-4528,PAYLOAD,2023-03-09 00:28:20,15.08842413,0.0001048,53.2167,7.2679,75.9069,284.2039,0.0012972,0.00020419,0.0,0 STARLINK-4528,1 53399U 22097M   23068.01968184  .00020419  00000-0  12972-2 0  9994,2 53399  53.2167   7.2679 0001048  75.9069 284.2039 15.08842413 32464,6917.873,95.437,540.463,539.013,0.0
53399.0,STARLINK-4528,PAYLOAD,2023-03-09 03:39:06,15.08855533,0.000133,53.2169,6.6732,70.751,289.3626,0.0010461,0.00016407,0.0,0 STARLINK-4528,1 53399U 22097M   23068.15216041  .00016407  00000-0  10461-2 0  9990,2 53399  53.2169   6.6732 0001330  70.7510 289.3626 15.08855533 32978,6917.833,95.437,540.618,538.778,0.0
53399.0,STARLINK-4528,PAYLOAD,2023-03-10 05:05:15,15.08900111,0.00013,53.2171,1.9157,86.0831,274.031,0.0025489,0.00040578,0.0,0 STARLINK-4528,1 53399U 22097M   23069.21198925  .00040578  00000-0  25489-2 0  9990,2 53399  53.2171   1.9157 0001300  86.0831 274.0310 15.08900111 32641,6917.697,95.434,540.461,538.662,0.0
53399.0,STARLINK-4528,PAYLOAD,2023-03-10 13:02:12,15.08833735,0.0002497,53.2175,0.4296,67.4644,292.6612,-1.3587e-05,-5.05e-06,0.0,0 STARLINK-4528,1 53399U 22097M   23069.54320083 -.00000505  00000-0 -13587-4 0  9994,2 53399  53.2175   0.4296 0002497  67.4644 292.6612 15.08833735 32699,6917.9,95.438,541.492,538.037,0.0
53399.0,STARLINK-4528,PAYLOAD,2023-03-11 04:56:04,15.08827562,0.0001654,53.2172,357.4556,56.6756,303.4394,0.002536,0.0004029,0.0,0 STARLINK-4528,1 53399U 22097M   23070.20561221  .00040290  00000-0  25360-2 0  9993,2 53399  53.2172 357.4556 0001654  56.6756 303.4394 15.08827562 32798,6917.918,95.438,540.928,538.639,0.0
53399.0,STARLINK-4528,PAYLOAD,2023-03-12 04:46:51,15.08871343,0.0001649,53.2174,352.9953,57.533,302.5821,0.0016226,0.00025652,0.0,0 STARLINK-4528,1 53399U 22097M   23071.19920817  .00025652  00000-0  16226-2 0  9998,2 53399  53.2174 352.9953 0001649  57.5330 302.5821 15.08871343 32941,6917.785,95.436,540.79,538.509,0.0
53399.0,STARLINK-4528,PAYLOAD,2023-03-13 04:37:38,15.08865237,0.0002671,53.2164,348.5344,61.0556,299.0704,0.00089019,0.00013918,0.0,0 STARLINK-4528,1 53399U 22097M   23072.19280504  .00013918  00000-0  89019-3 0  9994,2 53399  53.2164 348.5344 0002671  61.0556 299.0704 15.08865237 33093,6917.803,95.436,541.516,537.821,0.0
